[Satellite]
VERSION=1.1
NAME=JCSAT-5A
NICKNAME=JCSAT-5A
TLE1=1 29045U 06010A   17186.09907019 -.00000333  00000-0  00000-0 0  9995
TLE2=2 29045   0.0164 311.0695 0001646 161.7797 338.1294  1.00271575 41006
